GLOBALSTAR M045         
1 25676U 99019A   24315.49489830 -.00000023  00000+0  62338-3 0  9994
2 25676  51.9961 208.5849 0001056  84.6769  86.9266 12.27049692166548
GLOBALSTAR M019         
1 25677U 99019B   24315.50499868 -.00000075  00000+0  15857-3 0  9990
2 25677  51.9895 323.5337 0000835 238.0808 289.3557 12.13869699158587
GLOBALSTAR M044         
1 25678U 99019C   24315.52686211 -.00000087  00000+0 -52190-4 0  9999
2 25678  51.9967 247.4775 0006811 346.3350 184.9246 11.90245609145284
GLOBALSTAR M042         
1 25679U 99019D   24315.37715851 -.00000045  00000+0  44387-3 0  9997
2 25679  52.0021 308.6562 0002565 203.7283 303.7503 12.22073120158504
GLOBALSTAR M025         
1 25770U 99031A   24315.36471149 -.00000023  00000+0  13848-2 0  9994
2 25770  51.9826 306.1899 0001395 126.3028  20.7689 11.22556261457133
GLOBALSTAR M049         
1 25771U 99031B   24315.21688124  .00000039  00000+0  36008-2 0  9991
2 25771  51.9897 330.2910 0003280  11.5632 348.5240 11.12114137 93068
GLOBALSTAR M047         
1 25772U 99031C   24315.49932112 -.00000046  00000+0  66299-3 0  9996
2 25772  51.9863 347.5137 0016259 246.9852 112.9239 11.31924914446349
GLOBALSTAR M052         
1 25773U 99031D   24315.66275826 -.00000104  00000+0 -12760-2 0  9997
2 25773  51.9862  81.0243 0003189 153.5734 219.8601 11.15055439111963
